[{"OBJECT_NAME":"STARLINK-34077","OBJECT_ID":"2025-101R","EPOCH":"2026-03-07T05:48:09.813600","MEAN_MOTION":15.27616057,"ECCENTRICITY":0.00015073,"INCLINATION":43.0051,"RA_OF_ASC_NODE":11.5436,"ARG_OF_PERICENTER":267.1497,"MEAN_ANOMALY":92.9183,"EPHEMERIS_TYPE":0,"CLASSIFICATION_TYPE":"U","NORAD_CAT_ID":64009,"ELEMENT_SET_NO":999,"REV_AT_EPOCH":4668,"BSTAR":0.0013147153,"MEAN_MOTION_DOT":0.00036133,"MEAN_MOTION_DDOT":0},{"OBJECT_NAME":"STARLINK-34113","OBJECT_ID":"2025-101S","EPOCH":"2026-03-07T05:09:30.270816","MEAN_MOTION":15.275489,"ECCENTRICITY":0.00018775,"INCLINATION":43.0045,"RA_OF_ASC_NODE":12.2069,"ARG_OF_PERICENTER":274.9658,"MEAN_ANOMALY":85.098,"EPHEMERIS_TYPE":0,"CLASSIFICATION_TYPE":"U","NORAD_CAT_ID":64010,"ELEMENT_SET_NO":999,"REV_AT_EPOCH":4667,"BSTAR":0.0012377097,"MEAN_MOTION_DOT":0.00033922,"MEAN_MOTION_DDOT":0},{"OBJECT_NAME":"STARLINK-34193","OBJECT_ID":"2025-101T","EPOCH":"2026-03-07T05:07:40.047744","MEAN_MOTION":15.27604785,"ECCENTRICITY":0.00016303,"INCLINATION":43.0036,"RA_OF_ASC_NODE":12.1972,"ARG_OF_PERICENTER":260.3717,"MEAN_ANOMALY":99.695,"EPHEMERIS_TYPE":0,"CLASSIFICATION_TYPE":"U","NORAD_CAT_ID":64011,"ELEMENT_SET_NO":999,"REV_AT_EPOCH":4667,"BSTAR":0.0014479326,"MEAN_MOTION_DOT":0.00039828,"MEAN_MOTION_DDOT":0},{"OBJECT_NAME":"STARLINK-34078","OBJECT_ID":"2025-101U","EPOCH":"2026-03-07T05:44:27.961728","MEAN_MOTION":15.27582351,"ECCENTRICITY":0.00012667,"INCLINATION":43.0049,"RA_OF_ASC_NODE":11.5241,"ARG_OF_PERICENTER":263.7911,"MEAN_ANOMALY":96.2796,"EPHEMERIS_TYPE":0,"CLASSIFICATION_TYPE":"U","NORAD_CAT_ID":64012,"ELEMENT_SET_NO":999,"REV_AT_EPOCH":4668,"BSTAR":0.0011982605,"MEAN_MOTION_DOT":0.00032861,"MEAN_MOTION_DDOT":0},{"OBJECT_NAME":"STARLINK-34182","OBJECT_ID":"2025-101V","EPOCH":"2026-03-07T05:12:03.992832","MEAN_MOTION":15.27607078,"ECCENTRICITY":0.00010947,"INCLINATION":43.0032,"RA_OF_ASC_NODE":8.7585,"ARG_OF_PERICENTER":260.1789,"MEAN_ANOMALY":99.894,"EPHEMERIS_TYPE":0,"CLASSIFICATION_TYPE":"U","NORAD_CAT_ID":64013,"ELEMENT_SET_NO":999,"REV_AT_EPOCH":4671,"BSTAR":0.0012296095,"MEAN_MOTION_DOT":0.00033757,"MEAN_MOTION_DDOT":0},{"OBJECT_NAME":"STARLINK-34192","OBJECT_ID":"2025-101W","EPOCH":"2026-03-07T05:20:37.349664","MEAN_MOTION":15.27608863,"ECCENTRICITY":0.00015598,"INCLINATION":43.0037,"RA_OF_ASC_NODE":12.2631,"ARG_OF_PERICENTER":264.3755,"MEAN_ANOMALY":95.6919,"EPHEMERIS_TYPE":0,"CLASSIFICATION_TYPE":"U","NORAD_CAT_ID":64014,"ELEMENT_SET_NO":999,"REV_AT_EPOCH":4667,"BSTAR":0.0011801903,"MEAN_MOTION_DOT":0.00032386,"MEAN_MOTION_DDOT":0},{"OBJECT_NAME":"STARLINK-34093","OBJECT_ID":"2025-101X","EPOCH":"2026-03-07T04:19:33.680352","MEAN_MOTION":15.27633017,"ECCENTRICITY":0.00015652,"INCLINATION":43.004,"RA_OF_ASC_NODE":11.9396,"ARG_OF_PERICENTER":263.3143,"MEAN_ANOMALY":96.753,"EPHEMERIS_TYPE":0,"CLASSIFICATION_TYPE":"U","NORAD_CAT_ID":64015,"ELEMENT_SET_NO":999,"REV_AT_EPOCH":4667,"BSTAR":0.0011675725,"MEAN_MOTION_DOT":0.00032059,"MEAN_MOTION_DDOT":0},{"OBJECT_NAME":"STARLINK-34016","OBJECT_ID":"2025-101Y","EPOCH":"2026-03-07T04:12:08.432640","MEAN_MOTION":15.27528288,"ECCENTRICITY":8.292e-5,"INCLINATION":43.0049,"RA_OF_ASC_NODE":11.8995,"ARG_OF_PERICENTER":295.4743,"MEAN_ANOMALY":64.6023,"EPHEMERIS_TYPE":0,"CLASSIFICATION_TYPE":"U","NORAD_CAT_ID":64016,"ELEMENT_SET_NO":999,"REV_AT_EPOCH":4667,"BSTAR":0.0018074192,"MEAN_MOTION_DOT":0.00049731,"MEAN_MOTION_DDOT":0},{"OBJECT_NAME":"STARLINK-34161","OBJECT_ID":"2025-101Z","EPOCH":"2026-03-07T04:25:06.869856","MEAN_MOTION":15.27629001,"ECCENTRICITY":0.00017147,"INCLINATION":43.0032,"RA_OF_ASC_NODE":11.9638,"ARG_OF_PERICENTER":234.652,"MEAN_ANOMALY":125.4171,"EPHEMERIS_TYPE":0,"CLASSIFICATION_TYPE":"U","NORAD_CAT_ID":64017,"ELEMENT_SET_NO":999,"REV_AT_EPOCH":4667,"BSTAR":0.0011825267,"MEAN_MOTION_DOT":0.00032471,"MEAN_MOTION_DDOT":0},{"OBJECT_NAME":"STARLINK-34162","OBJECT_ID":"2025-101AA","EPOCH":"2026-03-07T04:43:36.848064","MEAN_MOTION":15.27616072,"ECCENTRICITY":0.00014324,"INCLINATION":43.0018,"RA_OF_ASC_NODE":12.068,"ARG_OF_PERICENTER":270.398,"MEAN_ANOMALY":89.6708,"EPHEMERIS_TYPE":0,"CLASSIFICATION_TYPE":"U","NORAD_CAT_ID":64018,"ELEMENT_SET_NO":999,"REV_AT_EPOCH":4667,"BSTAR":0.001728074,"MEAN_MOTION_DOT":0.00047651,"MEAN_MOTION_DDOT":0},{"OBJECT_NAME":"STARLINK-34155","OBJECT_ID":"2025-101AB","EPOCH":"2026-03-07T06:28:53.973696","MEAN_MOTION":15.27557778,"ECCENTRICITY":0.00020144,"INCLINATION":43.0032,"RA_OF_ASC_NODE":11.7515,"ARG_OF_PERICENTER":246.2454,"MEAN_ANOMALY":113.8187,"EPHEMERIS_TYPE":0,"CLASSIFICATION_TYPE":"U","NORAD_CAT_ID":64019,"ELEMENT_SET_NO":999,"REV_AT_EPOCH":4668,"BSTAR":0.0019963526,"MEAN_MOTION_DOT":0.00055048,"MEAN_MOTION_DDOT":0},{"OBJECT_NAME":"STARLINK-34141","OBJECT_ID":"2025-101AC","EPOCH":"2026-03-07T04:49:09.798240","MEAN_MOTION":15.27619878,"ECCENTRICITY":0.00017325,"INCLINATION":43.002,"RA_OF_ASC_NODE":12.0956,"ARG_OF_PERICENTER":265.8071,"MEAN_ANOMALY":94.2583,"EPHEMERIS_TYPE":0,"CLASSIFICATION_TYPE":"U","NORAD_CAT_ID":64020,"ELEMENT_SET_NO":999,"REV_AT_EPOCH":4667,"BSTAR":0.0019996682,"MEAN_MOTION_DOT":0.00055245,"MEAN_MOTION_DDOT":0},{"OBJECT_NAME":"STARLINK-34062","OBJECT_ID":"2025-101AD","EPOCH":"2026-03-07T05:51:51.139296","MEAN_MOTION":15.27618178,"ECCENTRICITY":0.00031553,"INCLINATION":43.007,"RA_OF_ASC_NODE":11.5555,"ARG_OF_PERICENTER":239.6838,"MEAN_ANOMALY":120.3702,"EPHEMERIS_TYPE":0,"CLASSIFICATION_TYPE":"U","NORAD_CAT_ID":64021,"ELEMENT_SET_NO":999,"REV_AT_EPOCH":4668,"BSTAR":0.0013419444,"MEAN_MOTION_DOT":0.00036896,"MEAN_MOTION_DDOT":0},{"OBJECT_NAME":"STARLINK-34051","OBJECT_ID":"2025-102A","EPOCH":"2026-03-06T16:00:01.999584","MEAN_MOTION":14.98317522,"ECCENTRICITY":0.00035575,"INCLINATION":70.0001,"RA_OF_ASC_NODE":122.0834,"ARG_OF_PERICENTER":272.8873,"MEAN_ANOMALY":292.7784,"EPHEMERIS_TYPE":0,"CLASSIFICATION_TYPE":"U","NORAD_CAT_ID":64022,"ELEMENT_SET_NO":999,"REV_AT_EPOCH":573,"BSTAR":0.00078730522,"MEAN_MOTION_DOT":9.311e-5,"MEAN_MOTION_DDOT":0},{"OBJECT_NAME":"STARLINK-34184","OBJECT_ID":"2025-102B","EPOCH":"2026-03-07T07:30:17.257536","MEAN_MOTION":14.98353512,"ECCENTRICITY":0.0004476,"INCLINATION":70.0008,"RA_OF_ASC_NODE":120.5525,"ARG_OF_PERICENTER":287.9175,"MEAN_ANOMALY":72.1496,"EPHEMERIS_TYPE":0,"CLASSIFICATION_TYPE":"U","NORAD_CAT_ID":64023,"ELEMENT_SET_NO":999,"REV_AT_EPOCH":4560,"BSTAR":0.00140769,"MEAN_MOTION_DOT":0.00016755,"MEAN_MOTION_DDOT":0},{"OBJECT_NAME":"STARLINK-34087","OBJECT_ID":"2025-102C","EPOCH":"2026-03-07T06:42:11.357568","MEAN_MOTION":14.98341877,"ECCENTRICITY":0.00034608,"INCLINATION":70.0006,"RA_OF_ASC_NODE":120.4326,"ARG_OF_PERICENTER":266.5091,"MEAN_ANOMALY":93.5673,"EPHEMERIS_TYPE":0,"CLASSIFICATION_TYPE":"U","NORAD_CAT_ID":64024,"ELEMENT_SET_NO":999,"REV_AT_EPOCH":4548,"BSTAR":0.00066506707,"MEAN_MOTION_DOT":7.854e-5,"MEAN_MOTION_DDOT":0},{"OBJECT_NAME":"STARLINK-34088","OBJECT_ID":"2025-102D","EPOCH":"2026-03-07T07:42:31.942656","MEAN_MOTION":14.98341858,"ECCENTRICITY":0.00036138,"INCLINATION":69.9998,"RA_OF_ASC_NODE":120.5753,"ARG_OF_PERICENTER":273.4284,"MEAN_ANOMALY":86.6462,"EPHEMERIS_TYPE":0,"CLASSIFICATION_TYPE":"U","NORAD_CAT_ID":64025,"ELEMENT_SET_NO":999,"REV_AT_EPOCH":4560,"BSTAR":0.00051334271,"MEAN_MOTION_DOT":6.039e-5,"MEAN_MOTION_DDOT":0},{"OBJECT_NAME":"STARLINK-33992","OBJECT_ID":"2025-102E","EPOCH":"2026-03-07T07:54:19.007424","MEAN_MOTION":14.98341768,"ECCENTRICITY":0.00036313,"INCLINATION":70.0007,"RA_OF_ASC_NODE":120.6107,"ARG_OF_PERICENTER":266.3126,"MEAN_ANOMALY":93.7617,"EPHEMERIS_TYPE":0,"CLASSIFICATION_TYPE":"U","NORAD_CAT_ID":64026,"ELEMENT_SET_NO":999,"REV_AT_EPOCH":4568,"BSTAR":0.00050476803,"MEAN_MOTION_DOT":5.937e-5,"MEAN_MOTION_DDOT":0},{"OBJECT_NAME":"STARLINK-33967","OBJECT_ID":"2025-102F","EPOCH":"2026-03-07T05:29:25.776384","MEAN_MOTION":15.00175829,"ECCENTRICITY":0.00190587,"INCLINATION":70.0008,"RA_OF_ASC_NODE":120.658,"ARG_OF_PERICENTER":196.4037,"MEAN_ANOMALY":163.6509,"EPHEMERIS_TYPE":0,"CLASSIFICATION_TYPE":"U","NORAD_CAT_ID":64027,"ELEMENT_SET_NO":999,"REV_AT_EPOCH":4552,"BSTAR":0.071843675,"MEAN_MOTION_DOT":0.00968913,"MEAN_MOTION_DDOT":0},{"OBJECT_NAME":"STARLINK-33953","OBJECT_ID":"2025-102G","EPOCH":"2026-03-07T06:24:09.264960","MEAN_MOTION":14.98341918,"ECCENTRICITY":0.00032894,"INCLINATION":70.0004,"RA_OF_ASC_NODE":120.3865,"ARG_OF_PERICENTER":268.4876,"MEAN_ANOMALY":91.5906,"EPHEMERIS_TYPE":0,"CLASSIFICATION_TYPE":"U","NORAD_CAT_ID":64028,"ELEMENT_SET_NO":999,"REV_AT_EPOCH":4569,"BSTAR":0.0005456214,"MEAN_MOTION_DOT":6.425e-5,"MEAN_MOTION_DDOT":0},{"OBJECT_NAME":"STARLINK-33790","OBJECT_ID":"2025-102H","EPOCH":"2026-03-07T07:24:28.210176","MEAN_MOTION":14.98343519,"ECCENTRICITY":0.00026319,"INCLINATION":70.0024,"RA_OF_ASC_NODE":120.5306,"ARG_OF_PERICENTER":210.7801,"MEAN_ANOMALY":149.3205,"EPHEMERIS_TYPE":0,"CLASSIFICATION_TYPE":"U","NORAD_CAT_ID":64029,"ELEMENT_SET_NO":999,"REV_AT_EPOCH":4564,"BSTAR":-0.00023262038,"MEAN_MOTION_DOT":-2.868e-5,"MEAN_MOTION_DDOT":0},{"OBJECT_NAME":"STARLINK-34030","OBJECT_ID":"2025-102J","EPOCH":"2026-03-07T07:42:18.420192","MEAN_MOTION":14.98325245,"ECCENTRICITY":0.00029558,"INCLINATION":70.0002,"RA_OF_ASC_NODE":120.5797,"ARG_OF_PERICENTER":271.0139,"MEAN_ANOMALY":89.0682,"EPHEMERIS_TYPE":0,"CLASSIFICATION_TYPE":"U","NORAD_CAT_ID":64030,"ELEMENT_SET_NO":999,"REV_AT_EPOCH":4560,"BSTAR":0.00069676102,"MEAN_MOTION_DOT":8.229e-5,"MEAN_MOTION_DDOT":0},{"OBJECT_NAME":"STARLINK-34024","OBJECT_ID":"2025-102K","EPOCH":"2026-03-07T07:18:15.144480","MEAN_MOTION":14.98343202,"ECCENTRICITY":0.00035246,"INCLINATION":70.0004,"RA_OF_ASC_NODE":120.5206,"ARG_OF_PERICENTER":270.8663,"MEAN_ANOMALY":89.2093,"EPHEMERIS_TYPE":0,"CLASSIFICATION_TYPE":"U","NORAD_CAT_ID":64031,"ELEMENT_SET_NO":999,"REV_AT_EPOCH":4553,"BSTAR":0.00057546,"MEAN_MOTION_DOT":6.782e-5,"MEAN_MOTION_DDOT":0}]
